start=new Date('2022-10-03T00:00:00.000Z').valueOf();
sats=[{"REV_AT_EPOCH":"3959","PERIAPSIS":"538.465","CENTER_NAME":"EARTH","MEAN_ANOMALY":"316.2681","GP_ID":"214049741","ECCENTRICITY":"0.00018920","CLASSIFICATION_TYPE":"U","MEAN_MOTION_DOT":"-0.00001144","INCLINATION":"53.2174","MEAN_MOTION":"15.08830668","ARG_OF_PERICENTER":"43.8461","TLE_LINE1":"1 51134U 22005AG  22275.84168360 -.00001144  00000-0 -53801-4 0  9990","FILE":"3589751","EPHEMERIS_TYPE":"0","ELEMENT_SET_NO":"999","EPOCH":"2022-10-02T20:12:01.463040","BSTAR":"-0.00005380100000","SEMIMAJOR_AXIS":"6917.909","MEAN_ELEMENT_THEORY":"SGP4","MEAN_MOTION_DDOT":"0.0000000000000","DECAY_DATE":null,"LAUNCH_DATE":"2022-01-19","TIME_SYSTEM":"UTC","SITE":"AFETR","REF_FRAME":"TEME","OBJECT_ID":"2022-005AG","TLE_LINE2":"2 51134  53.2174 157.8531 0001892  43.8461 316.2681 15.08830668 39592","PERIOD":"95.438","RCS_SIZE":"LARGE","APOAPSIS":"541.083","RA_OF_ASC_NODE":"157.8531","OBJECT_NAME":"STARLINK-3183","COUNTRY_CODE":"US","OBJECT_TYPE":"PAYLOAD","NORAD_CAT_ID":"51134"},{"TIME_SYSTEM":"UTC","LAUNCH_DATE":"2022-01-19","MEAN_MOTION_DDOT":"0.0000000000000","DECAY_DATE":null,"SEMIMAJOR_AXIS":"6917.911","MEAN_ELEMENT_THEORY":"SGP4","PERIOD":"95.438","TLE_LINE2":"2 51135  53.2162 167.7551 0001764  51.3497 308.7653 15.08830100 39443","OBJECT_ID":"2022-005AH","SITE":"AFETR","REF_FRAME":"TEME","OBJECT_NAME":"STARLINK-3363","RA_OF_ASC_NODE":"167.7551","COUNTRY_CODE":"US","RCS_SIZE":"LARGE","APOAPSIS":"540.996","NORAD_CAT_ID":"51135","OBJECT_TYPE":"PAYLOAD","CENTER_NAME":"EARTH","MEAN_ANOMALY":"308.7653","REV_AT_EPOCH":"3944","PERIAPSIS":"538.555","GP_ID":"214050988","INCLINATION":"53.2162","MEAN_MOTION":"15.08830100","MEAN_MOTION_DOT":"0.00000447","CLASSIFICATION_TYPE":"U","ECCENTRICITY":"0.00017640","BSTAR":"0.00004620600000","ELEMENT_SET_NO":"999","EPHEMERIS_TYPE":"0","EPOCH":"2022-10-02T20:51:42.018048","FILE":"3589751","TLE_LINE1":"1 51135U 22005AH  22275.86923632  .00000447  00000-0  46206-4 0  9998","ARG_OF_PERICENTER":"51.3497"},{"NORAD_CAT_ID":"51136","OBJECT_TYPE":"PAYLOAD","APOAPSIS":"541.036","RCS_SIZE":"LARGE","COUNTRY_CODE":"US","OBJECT_NAME":"STARLINK-3253","RA_OF_ASC_NODE":"167.7455","TLE_LINE2":"2 51136  53.2177 167.7455 0001863  53.0796 307.0367 15.08839505 39446","PERIOD":"95.438","REF_FRAME":"TEME","SITE":"AFETR","OBJECT_ID":"2022-005AJ","LAUNCH_DATE":"2022-01-19","TIME_SYSTEM":"UTC","MEAN_ELEMENT_THEORY":"SGP4","SEMIMAJOR_AXIS":"6917.882","DECAY_DATE":null,"MEAN_MOTION_DDOT":"0.0000000000000","EPHEMERIS_TYPE":"0","ELEMENT_SET_NO":"999","EPOCH":"2022-10-02T20:53:05.676576","BSTAR":"-0.00008653500000","ARG_OF_PERICENTER":"53.0796","TLE_LINE1":"1 51136U 22005AJ  22275.87020459 -.00001665  00000-0 -86535-4 0  9999","FILE":"3589751","MEAN_MOTION_DOT":"-0.00001665","CLASSIFICATION_TYPE":"U","MEAN_MOTION":"15.08839505","INCLINATION":"53.2177","ECCENTRICITY":"0.00018630","GP_ID":"214051225","MEAN_ANOMALY":"307.0367","CENTER_NAME":"EARTH","PERIAPSIS":"538.458","REV_AT_EPOCH":"3944"},{"GP_ID":"214049992","CENTER_NAME":"EARTH","MEAN_ANOMALY":"314.8224","REV_AT_EPOCH":"3945","PERIAPSIS":"538.407","BSTAR":"-0.00001406100000","EPHEMERIS_TYPE":"0","ELEMENT_SET_NO":"999","EPOCH":"2022-10-02T20:35:47.959008","FILE":"3589751","TLE_LINE1":"1 51137U 22005AK  22275.85819397 -.00000512  00000-0 -14061-4 0  9990","ARG_OF_PERICENTER":"45.2926","MEAN_MOTION":"15.08838935","INCLINATION":"53.2174","CLASSIFICATION_TYPE":"U","MEAN_MOTION_DOT":"-0.00000512","ECCENTRICITY":"0.00019390","PERIOD":"95.438","TLE_LINE2":"2 51137  53.2174 167.8009 0001939  45.2926 314.8224 15.08838935 39457","OBJECT_ID":"2022-005AK","SITE":"AFETR","REF_FRAME":"TEME","TIME_SYSTEM":"UTC","LAUNCH_DATE":"2022-01-19","MEAN_MOTION_DDOT":"0.0000000000000","DECAY_DATE":null,"SEMIMAJOR_AXIS":"6917.884","MEAN_ELEMENT_THEORY":"SGP4","NORAD_CAT_ID":"51137","OBJECT_TYPE":"PAYLOAD","RA_OF_ASC_NODE":"167.8009","OBJECT_NAME":"STARLINK-3180","COUNTRY_CODE":"US","RCS_SIZE":"LARGE","APOAPSIS":"541.090"},{"REF_FRAME":"TEME","SITE":"AFETR","OBJECT_ID":"2022-005AL","TLE_LINE2":"2 51138  53.2170 167.7477 0001878  45.0669 315.0475 15.08840053 39440","PERIOD":"95.438","SEMIMAJOR_AXIS":"6917.880","MEAN_ELEMENT_THEORY":"SGP4","DECAY_DATE":null,"MEAN_MOTION_DDOT":"0.0000000000000","LAUNCH_DATE":"2022-01-19","TIME_SYSTEM":"UTC","OBJECT_TYPE":"PAYLOAD","NORAD_CAT_ID":"51138","APOAPSIS":"541.044","RCS_SIZE":"LARGE","COUNTRY_CODE":"US","RA_OF_ASC_NODE":"167.7477","OBJECT_NAME":"STARLINK-3177","GP_ID":"214050241","PERIAPSIS":"538.446","REV_AT_EPOCH":"3944","MEAN_ANOMALY":"315.0475","CENTER_NAME":"EARTH","TLE_LINE1":"1 51138U 22005AL  22275.86555385  .00002213  00000-0  15712-3 0  9997","ARG_OF_PERICENTER":"45.0669","FILE":"3589751","ELEMENT_SET_NO":"999","EPHEMERIS_TYPE":"0","EPOCH":"2022-10-02T20:46:23.852640","BSTAR":"0.00015712000000","ECCENTRICITY":"0.00018780","CLASSIFICATION_TYPE":"U","MEAN_MOTION_DOT":"0.00002213","INCLINATION":"53.2170","MEAN_MOTION":"15.08840053"},{"OBJECT_TYPE":"PAYLOAD","NORAD_CAT_ID":"51139","APOAPSIS":"541.130","RCS_SIZE":"LARGE","COUNTRY_CODE":"US","OBJECT_NAME":"STARLINK-3172","RA_OF_ASC_NODE":"167.8284","REF_FRAME":"TEME","SITE":"AFETR","OBJECT_ID":"2022-005AM","TLE_LINE2":"2 51139  53.2184 167.8284 0001984  47.7434 312.3727 15.08836160 39455","PERIOD":"95.438","MEAN_ELEMENT_THEORY":"SGP4","SEMIMAJOR_AXIS":"6917.892","DECAY_DATE":null,"MEAN_MOTION_DDOT":"0.0000000000000","LAUNCH_DATE":"2022-01-19","TIME_SYSTEM":"UTC","ARG_OF_PERICENTER":"47.7434","TLE_LINE1":"1 51139U 22005AM  22275.85083603 -.00000936  00000-0 -40699-4 0  9991","FILE":"3589751","ELEMENT_SET_NO":"999","EPHEMERIS_TYPE":"0","EPOCH":"2022-10-02T20:25:12.232992","BSTAR":"-0.00004069900000","ECCENTRICITY":"0.00019840","CLASSIFICATION_TYPE":"U","MEAN_MOTION_DOT":"-0.00000936","MEAN_MOTION":"15.08836160","INCLINATION":"53.2184","GP_ID":"214050489","PERIAPSIS":"538.385","REV_AT_EPOCH":"3945","MEAN_ANOMALY":"312.3727","CENTER_NAME":"EARTH"},{"ECCENTRICITY":"0.00015870","CLASSIFICATION_TYPE":"U","MEAN_MOTION_DOT":"-0.00001743","INCLINATION":"53.2157","MEAN_MOTION":"15.08829645","ARG_OF_PERICENTER":"52.1670","TLE_LINE1":"1 51140U 22005AN  22275.86187889 -.00001743  00000-0 -91445-4 0  9997","FILE":"3589751","ELEMENT_SET_NO":"999","EPHEMERIS_TYPE":"0","EPOCH":"2022-10-02T20:41:06.336096","BSTAR":"-0.00009144500000","PERIAPSIS":"538.679","REV_AT_EPOCH":"3945","MEAN_ANOMALY":"307.9466","CENTER_NAME":"EARTH","GP_ID":"214050726","APOAPSIS":"540.875","RCS_SIZE":"LARGE","COUNTRY_CODE":"US","OBJECT_NAME":"STARLINK-3175","RA_OF_ASC_NODE":"167.7732","OBJECT_TYPE":"PAYLOAD","NORAD_CAT_ID":"51140","SEMIMAJOR_AXIS":"6917.912","MEAN_ELEMENT_THEORY":"SGP4","DECAY_DATE":null,"MEAN_MOTION_DDOT":"0.0000000000000","LAUNCH_DATE":"2022-01-19","TIME_SYSTEM":"UTC","REF_FRAME":"TEME","SITE":"AFETR","OBJECT_ID":"2022-005AN","TLE_LINE2":"2 51140  53.2157 167.7732 0001587  52.1670 307.9466 15.08829645 39455","PERIOD":"95.438"},{"SITE":"AFETR","REF_FRAME":"TEME","OBJECT_ID":"2022-005AP","TLE_LINE2":"2 51141  53.2155 167.8657 0002081  51.0312 309.0865 15.08831672 39451","PERIOD":"95.438","SEMIMAJOR_AXIS":"6917.906","MEAN_ELEMENT_THEORY":"SGP4","MEAN_MOTION_DDOT":"0.0000000000000","DECAY_DATE":null,"LAUNCH_DATE":"2022-01-19","TIME_SYSTEM":"UTC","OBJECT_TYPE":"PAYLOAD","NORAD_CAT_ID":"51141","RCS_SIZE":"LARGE","APOAPSIS":"541.210","OBJECT_NAME":"STARLINK-3179","RA_OF_ASC_NODE":"167.8657","COUNTRY_CODE":"US","GP_ID":"214049493","REV_AT_EPOCH":"3945","PERIAPSIS":"538.331","CENTER_NAME":"EARTH","MEAN_ANOMALY":"309.0865","ARG_OF_PERICENTER":"51.0312","TLE_LINE1":"1 51141U 22005AP  22275.84348328  .00003008  00000-0  20708-3 0  9990","FILE":"3589751","EPHEMERIS_TYPE":"0","ELEMENT_SET_NO":"999","EPOCH":"2022-10-02T20:14:36.955392","BSTAR":"0.00020708000000","ECCENTRICITY":"0.00020810","MEAN_MOTION_DOT":"0.00003008","CLASSIFICATION_TYPE":"U","MEAN_MOTION":"15.08831672","INCLINATION":"53.2155"},{"BSTAR":"-0.00037443000000","EPHEMERIS_TYPE":"0","ELEMENT_SET_NO":"999","EPOCH":"2022-10-02T22:00:00.999936","FILE":"3589751","ARG_OF_PERICENTER":"48.7168","TLE_LINE1":"1 51142U 22005AQ  22275.91667824 -.00006241  00000-0 -37443-3 0  9992","INCLINATION":"53.2160","MEAN_MOTION":"15.08834392","MEAN_MOTION_DOT":"-0.00006241","CLASSIFICATION_TYPE":"U","ECCENTRICITY":"0.00018770","GP_ID":"214049742","MEAN_ANOMALY":"18.9927","CENTER_NAME":"EARTH","PERIAPSIS":"538.464","REV_AT_EPOCH":"130","NORAD_CAT_ID":"51142","OBJECT_TYPE":"PAYLOAD","COUNTRY_CODE":"US","RA_OF_ASC_NODE":"157.5379","OBJECT_NAME":"STARLINK-3369","APOAPSIS":"541.061","RCS_SIZE":"LARGE","PERIOD":"95.438","TLE_LINE2":"2 51142  53.2160 157.5379 0001877  48.7168  18.9927 15.08834392  1309","OBJECT_ID":"2022-005AQ","REF_FRAME":"TEME","SITE":"AFETR","TIME_SYSTEM":"UTC","LAUNCH_DATE":"2022-01-19","DECAY_DATE":null,"MEAN_MOTION_DDOT":"0.0000000000000","SEMIMAJOR_AXIS":"6917.898","MEAN_ELEMENT_THEORY":"SGP4"},{"COUNTRY_CODE":"US","RA_OF_ASC_NODE":"179.7217","OBJECT_NAME":"STARLINK-3184","APOAPSIS":"540.938","RCS_SIZE":"LARGE","OBJECT_TYPE":"PAYLOAD","NORAD_CAT_ID":"51143","DECAY_DATE":null,"MEAN_MOTION_DDOT":"0.0000000000000","MEAN_ELEMENT_THEORY":"SGP4","SEMIMAJOR_AXIS":"6917.917","TIME_SYSTEM":"UTC","LAUNCH_DATE":"2022-01-19","OBJECT_ID":"2022-005AR","REF_FRAME":"TEME","SITE":"AFETR","PERIOD":"95.438","TLE_LINE2":"2 51143  53.2169 179.7217 0001670  68.6091 291.5079 15.08827885 39243","ECCENTRICITY":"0.00016700","INCLINATION":"53.2169","MEAN_MOTION":"15.08827885","MEAN_MOTION_DOT":"-0.00000562","CLASSIFICATION_TYPE":"U","FILE":"3589474","ARG_OF_PERICENTER":"68.6091","TLE_LINE1":"1 51143U 22005AR  22275.43041137 -.00000562  00000-0 -17199-4 0  9990","BSTAR":"-0.00001719900000","ELEMENT_SET_NO":"999","EPHEMERIS_TYPE":"0","EPOCH":"2022-10-02T10:19:47.542368","PERIAPSIS":"538.627","REV_AT_EPOCH":"3924","MEAN_ANOMALY":"291.5079","CENTER_NAME":"EARTH","GP_ID":"214018947"}];
